OBJECT_NAME,OBJECT_ID,EPOCH,MEAN_MOTION,ECCENTRICITY,INCLINATION,RA_OF_ASC_NODE,ARG_OF_PERICENTER,MEAN_ANOMALY,EPHEMERIS_TYPE,CLASSIFICATION_TYPE,NORAD_CAT_ID,ELEMENT_SET_NO,REV_AT_EPOCH,BSTAR,MEAN_MOTION_DOT,MEAN_MOTION_DDOT
ONEWEB-0012,2019-010A,2026-07-07T02:07:14.818944,13.16595858,.00016819,87.9078,224.8324,89.5424,270.5900,0,U,44057,999,35418,.12661332E-3,.61E-6,0
ONEWEB-0010,2019-010B,2026-07-07T00:54:18.529344,13.16593237,.00021942,87.9083,224.8383,103.3082,256.8294,0,U,44058,999,35422,.17807869E-4,.2E-6,0
ONEWEB-0008,2019-010C,2026-07-07T01:30:46.924704,13.16593162,.00022531,87.9078,224.8288,89.4573,270.6816,0,U,44059,999,35434,-.14293225E-3,-.42E-6,0
ONEWEB-0007,2019-010D,2026-07-06T15:46:57.230112,13.15548298,.00018191,87.8993,255.3419,104.8614,255.2718,0,U,44060,999,35393,.3958232E-4,.28E-6,0
ONEWEB-0006,2019-010E,2026-07-07T17:25:58.506240,13.15550461,.0002208,87.9003,255.0951,98.3014,261.8367,0,U,44061,999,35412,.11705E-3,.57E-6,0
ONEWEB-0011,2019-010F,2026-07-07T16:40:19.765344,13.15549038,.000228,87.8999,255.1118,99.3548,260.7840,0,U,44062,999,35411,.28303E-4,.23E-6,0
ONEWEB-0013,2020-008A,2026-07-07T00:53:03.379488,13.09462652,.00013221,87.8506,48.8188,49.5148,310.6094,0,U,45131,999,30866,-.13603336E-2,-.456E-5,0
ONEWEB-0017,2020-008B,2026-07-07T00:07:50.603520,13.10377399,.00019535,87.8818,32.3194,91.2994,268.8357,0,U,45132,999,31054,.10221278E-2,.37E-5,0
ONEWEB-0020,2020-008C,2026-07-06T23:23:47.810688,13.10370506,.00018444,87.8819,32.3246,85.6576,274.4763,0,U,45133,999,31093,-.1727935E-2,-.59E-5,0
ONEWEB-0021,2020-008D,2026-07-06T23:45:46.763712,13.10373897,.00017236,87.8820,32.3368,87.6697,272.4628,0,U,45134,999,31124,-.13368886E-2,-.454E-5,0
ONEWEB-0023,2020-008F,2026-07-06T22:11:43.536480,13.10378879,.00018718,87.8826,32.3327,79.6150,280.5188,0,U,45136,999,31066,-.1872868E-4,.6E-7,0
ONEWEB-0024,2020-008G,2026-07-06T23:21:32.335488,13.10369585,.00018246,87.8827,32.3165,88.2814,271.8523,0,U,45137,999,31083,-.14925919E-2,-.508E-5,0
ONEWEB-0025,2020-008H,2026-07-06T23:21:08.931456,13.10370099,.00022738,87.8827,32.3065,83.1207,277.0179,0,U,45138,999,31116,-.15200597E-2,-.518E-5,0
ONEWEB-0026,2020-008J,2026-07-07T18:12:31.362048,13.11414661,.0001988,87.8880,16.9716,92.2902,267.8453,0,U,45139,999,31380,.49623E-3,.189E-5,0
ONEWEB-0028,2020-008K,2026-07-07T12:07:31.557504,13.11417136,.0001447,87.8875,17.0295,73.1523,286.9763,0,U,45140,999,31128,.1104767E-2,.404E-5,0
ONEWEB-0032,2020-008L,2026-07-07T00:10:28.439040,13.10375687,.00016611,87.8820,32.3208,70.2799,289.8507,0,U,45141,999,31089,.11232335E-2,.405E-5,0
ONEWEB-0033,2020-008M,2026-07-06T23:33:33.731424,13.10372028,.00021037,87.8816,32.3324,98.9742,261.1623,0,U,45142,999,31080,-.18778098E-2,-.643E-5,0
ONEWEB-0035,2020-008N,2026-07-07T00:03:08.904960,13.10355539,.00019386,87.8819,32.3213,87.8333,272.3017,0,U,45143,999,31053,-.50748702E-2,-.1758E-4,0
ONEWEB-0036,2020-008P,2026-07-07T12:20:38.534496,13.10367803,.00017494,87.8831,32.2356,79.6453,280.4871,0,U,45144,999,31102,-.17737881E-2,-.606E-5,0
ONEWEB-0038,2020-008Q,2026-07-07T00:08:41.158752,13.11415121,.00013508,87.8894,17.1332,150.4353,209.6851,0,U,45145,999,31292,-.98253818E-3,-.336E-5,0
ONEWEB-0039,2020-008R,2026-07-06T23:38:27.832704,13.10372016,.00013685,87.8813,32.3226,71.8892,288.2385,0,U,45146,999,31075,-.95343799E-3,-.32E-5,0
ONEWEB-0040,2020-008S,2026-07-07T12:18:21.104064,13.10370338,.00019595,87.8814,32.2279,77.7458,282.3889,0,U,45147,999,31052,-.17057739E-2,-.583E-5,0
ONEWEB-0043,2020-008U,2026-07-07T12:21:01.134144,13.10366163,.00014549,87.8823,32.2165,73.0042,287.1244,0,U,45149,999,31084,-.18003834E-2,-.616E-5,0
ONEWEB-0044,2020-008V,2026-07-07T00:12:44.258976,13.10376751,.0001798,87.8828,32.3184,80.6655,279.4676,0,U,45150,999,31107,.13612313E-2,.488E-5,0
ONEWEB-0045,2020-008W,2026-07-07T18:19:50.558304,13.11414786,.0001715,87.8889,16.9638,89.1752,270.9572,0,U,45151,999,31310,-.16651E-3,-.46E-6,0
ONEWEB-0047,2020-008X,2026-07-07T00:02:42.396576,13.10375864,.00018122,87.8828,32.3193,92.9107,267.2228,0,U,45152,999,31079,.36125519E-3,.139E-5,0
ONEWEB-0048,2020-008Y,2026-07-06T23:55:33.726432,13.10375907,.0001829,87.8821,32.3396,88.5028,271.6309,0,U,45153,999,31040,-.98265896E-3,-.33E-5,0
ONEWEB-0049,2020-008Z,2026-07-07T00:00:15.075936,13.10374759,.00020763,87.8818,32.3280,75.2184,284.9173,0,U,45154,999,31062,.21636144E-3,.88E-6,0
ONEWEB-0051,2020-008AA,2026-07-07T18:17:24.702144,13.11415308,.0001866,87.8879,16.9699,90.2320,269.9022,0,U,45155,999,31378,.18958E-3,.8E-6,0
ONEWEB-0052,2020-008AB,2026-07-06T22:40:05.252736,13.10375103,.00019514,87.8821,32.3263,76.2835,283.8509,0,U,45156,999,31052,.22987925E-2,.815E-5,0
